{"type": "FeatureCollection", "features": [ {"type": "Feature", "properties": {"norad_id": 60453, "name": "LEGION 4", "group": "resource", "lat": 24.22348431163765, "lon": -148.1204870698611, "alt_km": 520.9032057953009, "timestamp": "2025-12-09T14:52:25.823894+00:00", "meta": {"OBJECT_NAME": "LEGION 4", "OBJECT_ID": "2024-146B", "EPOCH": "2025-12-09T06:19:48.721440", "MEAN_MOTION": 15.15767585, "ECCENTRICITY": 0.00097854, "INCLINATION": 45.0385, "RA_OF_ASC_NODE": 60.5068, "ARG_OF_PERICENTER": 292.9763, "MEAN_ANOMALY": 67.0084, "EPHEMERIS_TYPE": 0, "CLASSIFICATION_TYPE": "U", "NORAD_CAT_ID": 60453, "ELEMENT_SET_NO": 999, "REV_AT_EPOCH": 7205, "BSTAR": 0.00038671177, "MEAN_MOTION_DOT": 7.254e-05, "MEAN_MOTION_DDOT": 0}, "tle": {"line1": "1 60453U 24146B   25343.26375835  .00007254  00000+0  38671-3 0  9996", "line2": "2 60453  45.0385  60.5068 0009785 292.9763  67.0084 15.15767585 72056"}}, "geometry": {"type": "Point", "coordinates": [-148.1204870698611, 24.22348431163765]}}, {"type": "Feature", "properties": {"norad_id": 60989, "name": "SENTINEL-2C", "group": "resource", "lat": 37.59611024241166, "lon": -117.18614692183479, "alt_km": 785.6337792500617, "timestamp": "2025-12-09T14:52:25.823904+00:00", "meta": {"OBJECT_NAME": "SENTINEL-2C", "OBJECT_ID": "2024-157A", "EPOCH": "2025-12-09T04:08:36.251520", "MEAN_MOTION": 14.30815346, "ECCENTRICITY": 0.00011884, "INCLINATION": 98.5685, "RA_OF_ASC_NODE": 55.7066, "ARG_OF_PERICENTER": 97.9261, "MEAN_ANOMALY": 262.2056, "EPHEMERIS_TYPE": 0, "CLASSIFICATION_TYPE": "U", "NORAD_CAT_ID": 60989, "ELEMENT_SET_NO": 999, "REV_AT_EPOCH": 6581, "BSTAR": 0.00011761531, "MEAN_MOTION_DOT": 2.65e-06, "MEAN_MOTION_DDOT": 0}, "tle": {"line1": "1 60989U 24157A   25343.17264180  .00000265  00000+0  11762-3 0  9999", "line2": "2 60989  98.5685  55.7066 0001188  97.9261 262.2056 14.30815346 65814"}}, "geometry": {"type": "Point", "coordinates": [-117.18614692183479, 37.59611024241166]}}, {"type": "Feature", "properties": {"norad_id": 61735, "name": "IONOSFERA-M 1", "group": "resource", "lat": 40.3017465534512, "lon": 40.98960653256904, "alt_km": 813.3132679492783, "timestamp": "2025-12-09T14:52:25.823915+00:00", "meta": {"OBJECT_NAME": "IONOSFERA-M 1", "OBJECT_ID": "2024-199A", "EPOCH": "2025-12-09T07:28:15.943296", "MEAN_MOTION": 14.22712961, "ECCENTRICITY": 0.00011245, "INCLINATION": 98.7413, "RA_OF_ASC_NODE": 213.1858, "ARG_OF_PERICENTER": 26.5194, "MEAN_ANOMALY": 333.6041, "EPHEMERIS_TYPE": 0, "CLASSIFICATION_TYPE": "U", "NORAD_CAT_ID": 61735, "ELEMENT_SET_NO": 999, "REV_AT_EPOCH": 10070, "BSTAR": 8.5857402e-05, "MEAN_MOTION_DOT": 1.48e-06, "MEAN_MOTION_DDOT": 0}, "tle": {"line1": "1 61735U 24199A   25343.31129564  .00000148  00000+0  85857-4 0  9994", "line2": "2 61735  98.7413 213.1858 0001124  26.5194 333.6041 14.22712961100702"}}, "geometry": {"type": "Point", "coordinates": [40.98960653256904, 40.3017465534512]}}, {"type": "Feature", "properties": {"norad_id": 61736, "name": "IONOSFERA-M 2", "group": "resource", "lat": -37.91181725438981, "lon": -139.71444620104248, "alt_km": 823.5428459066779, "timestamp": "2025-12-09T14:52:25.823926+00:00", "meta": {"OBJECT_NAME": "IONOSFERA-M 2", "OBJECT_ID": "2024-199B", "EPOCH": "2025-12-09T06:36:53.460864", "MEAN_MOTION": 14.22715103, "ECCENTRICITY": 0.00015712, "INCLINATION": 98.7404, "RA_OF_ASC_NODE": 213.0629, "ARG_OF_PERICENTER": 114.4742, "MEAN_ANOMALY": 245.66, "EPHEMERIS_TYPE": 0, "CLASSIFICATION_TYPE": "U", "NORAD_CAT_ID": 61736, "ELEMENT_SET_NO": 999, "REV_AT_EPOCH": 10382, "BSTAR": 8.4402623e-05, "MEAN_MOTION_DOT": 1.45e-06, "MEAN_MOTION_DDOT": 0}, "tle": {"line1": "1 61736U 24199B   25343.27561876  .00000145  00000+0  84403-4 0  9999", "line2": "2 61736  98.7404 213.0629 0001571 114.4742 245.6600 14.22715103103820"}}, "geometry": {"type": "Point", "coordinates": [-139.71444620104248, -37.91181725438981]}}, {"type": "Feature", "properties": {"norad_id": 63772, "name": "BIOMASS", "group": "resource", "lat": 11.1171924800846, "lon": 167.077371658021, "alt_km": 670.0466248467092, "timestamp": "2025-12-09T14:52:25.823936+00:00", "meta": {"OBJECT_NAME": "BIOMASS", "OBJECT_ID": "2025-090A", "EPOCH": "2025-12-09T01:43:54.455520", "MEAN_MOTION": 14.6753205, "ECCENTRICITY": 0.00012027, "INCLINATION": 98.0699, "RA_OF_ASC_NODE": 168.1356, "ARG_OF_PERICENTER": 79.0989, "MEAN_ANOMALY": 281.035, "EPHEMERIS_TYPE": 0, "CLASSIFICATION_TYPE": "U", "NORAD_CAT_ID": 63772, "ELEMENT_SET_NO": 999, "REV_AT_EPOCH": 3280, "BSTAR": 0.00037862402, "MEAN_MOTION_DOT": 2.099e-05, "MEAN_MOTION_DDOT": 0}, "tle": {"line1": "1 63772U 25090A   25343.07215805  .00002099  00000+0  37862-3 0  9994", "line2": "2 63772  98.0699 168.1356 0001202  79.0989 281.0350 14.67532050 32800"}}, "geometry": {"type": "Point", "coordinates": [167.077371658021, 11.1171924800846]}}, {"type": "Feature", "properties": {"norad_id": 64694, "name": "GOSAT-GW (IBUKI GW)", "group": "resource", "lat": -40.24443372632642, "lon": 92.31614526571742, "alt_km": 676.1883826326502, "timestamp": "2025-12-09T14:52:25.823946+00:00", "meta": {"OBJECT_NAME": "GOSAT-GW (IBUKI GW)", "OBJECT_ID": "2025-141A", "EPOCH": "2025-12-08T18:14:08.043648", "MEAN_MOTION": 14.67565462, "ECCENTRICITY": 0.00014946, "INCLINATION": 98.0423, "RA_OF_ASC_NODE": 278.345, "ARG_OF_PERICENTER": 82.5316, "MEAN_ANOMALY": 277.6059, "EPHEMERIS_TYPE": 0, "CLASSIFICATION_TYPE": "U", "NORAD_CAT_ID": 64694, "ELEMENT_SET_NO": 999, "REV_AT_EPOCH": 2391, "BSTAR": 0.00038232231, "MEAN_MOTION_DOT": 2.122e-05, "MEAN_MOTION_DDOT": 0}, "tle": {"line1": "1 64694U 25141A   25342.75981532  .00002122  00000+0  38232-3 0  9995", "line2": "2 64694  98.0423 278.3450 0001494  82.5316 277.6059 14.67565462 23916"}}, "geometry": {"type": "Point", "coordinates": [92.31614526571742, -40.24443372632642]}}, {"type": "Feature", "properties": {"norad_id": 64876, "name": "IONOSFERA-M 3", "group": "resource", "lat": 19.910916138868156, "lon": -57.55967732624223, "alt_km": 819.3121094943763, "timestamp": "2025-12-09T14:52:25.823956+00:00", "meta": {"OBJECT_NAME": "IONOSFERA-M 3", "OBJECT_ID": "2025-155A", "EPOCH": "2025-12-09T08:01:18.603840", "MEAN_MOTION": 14.21439767, "ECCENTRICITY": 0.00023153, "INCLINATION": 98.5778, "RA_OF_ASC_NODE": 305.2969, "ARG_OF_PERICENTER": 65.3395, "MEAN_ANOMALY": 294.8023, "EPHEMERIS_TYPE": 0, "CLASSIFICATION_TYPE": "U", "NORAD_CAT_ID": 64876, "ELEMENT_SET_NO": 999, "REV_AT_EPOCH": 1943, "BSTAR": 9.7669134e-05, "MEAN_MOTION_DOT": 1.71e-06, "MEAN_MOTION_DDOT": 0}, "tle": {"line1": "1 64876U 25155A   25343.33424310  .00000171  00000+0  97669-4 0  9995", "line2": "2 64876  98.5778 305.2969 0002315  65.3395 294.8023 14.21439767 19432"}}, "geometry": {"type": "Point", "coordinates": [-57.55967732624223, 19.910916138868156]}}, {"type": "Feature", "properties": {"norad_id": 64877, "name": "IONOSFERA-M 4", "group": "resource", "lat": -20.795780149181564, "lon": 122.20771573287347, "alt_km": 826.5279815592712, "timestamp": "2025-12-09T14:52:25.823966+00:00", "meta": {"OBJECT_NAME": "IONOSFERA-M 4", "OBJECT_ID": "2025-155B", "EPOCH": "2025-12-09T05:29:04.965216", "MEAN_MOTION": 14.21440809, "ECCENTRICITY": 0.00016734, "INCLINATION": 98.5776, "RA_OF_ASC_NODE": 305.1137, "ARG_OF_PERICENTER": 67.0359, "MEAN_ANOMALY": 293.0995, "EPHEMERIS_TYPE": 0, "CLASSIFICATION_TYPE": "U", "NORAD_CAT_ID": 64877, "ELEMENT_SET_NO": 999, "REV_AT_EPOCH": 1941, "BSTAR": 9.9624126e-05, "MEAN_MOTION_DOT": 1.75e-06, "MEAN_MOTION_DDOT": 0}, "tle": {"line1": "1 64877U 25155B   25343.22852969  .00000175  00000+0  99624-4 0  9996", "line2": "2 64877  98.5776 305.1137 0001673  67.0359 293.0995 14.21440809 19418"}}, "geometry": {"type": "Point", "coordinates": [122.20771573287347, -20.795780149181564]}}, {"type": "Feature", "properties": {"norad_id": 64899, "name": "MICROCARB", "group": "resource", "lat": 31.6425159367036, "lon": -116.01145310647723, "alt_km": 640.9344101496617, "timestamp": "2025-12-09T14:52:25.823977+00:00", "meta": {"OBJECT_NAME": "MICROCARB", "OBJECT_ID": "2025-156A", "EPOCH": "2025-12-09T04:24:58.268736", "MEAN_MOTION": 14.72047394, "ECCENTRICITY": 0.00169148, "INCLINATION": 98.0028, "RA_OF_ASC_NODE": 58.5864, "ARG_OF_PERICENTER": 155.6667, "MEAN_ANOMALY": 204.5342, "EPHEMERIS_TYPE": 0, "CLASSIFICATION_TYPE": "U", "NORAD_CAT_ID": 64899, "ELEMENT_SET_NO": 999, "REV_AT_EPOCH": 2001, "BSTAR": 0.00018901046, "MEAN_MOTION_DOT": 1.14e-05, "MEAN_MOTION_DDOT": 0}, "tle": {"line1": "1 64899U 25156A   25343.18400774  .00001140  00000+0  18901-3 0  9990", "line2": "2 64899  98.0028  58.5864 0016914 155.6667 204.5342 14.72047394 20012"}}, "geometry": {"type": "Point", "coordinates": [-116.01145310647723, 31.6425159367036]}}, {"type": "Feature", "properties": {"norad_id": 64900, "name": "CO3D 3", "group": "resource", "lat": 9.38556972514557, "lon": 58.794915950263125, "alt_km": 507.0345713596298, "timestamp": "2025-12-09T14:52:25.823987+00:00", "meta": {"OBJECT_NAME": "CO3D 3", "OBJECT_ID": "2025-156B", "EPOCH": "2025-12-08T18:17:44.446272", "MEAN_MOTION": 15.2019842, "ECCENTRICITY": 0.0001356, "INCLINATION": 97.4341, "RA_OF_ASC_NODE": 59.1865, "ARG_OF_PERICENTER": 106.1908, "MEAN_ANOMALY": 253.9476, "EPHEMERIS_TYPE": 0, "CLASSIFICATION_TYPE": "U", "NORAD_CAT_ID": 64900, "ELEMENT_SET_NO": 999, "REV_AT_EPOCH": 2060, "BSTAR": 0.0004581347, "MEAN_MOTION_DOT": 9.862e-05, "MEAN_MOTION_DDOT": 0}, "tle": {"line1": "1 64900U 25156B   25342.76231998  .00009862  00000+0  45813-3 0  9997", "line2": "2 64900  97.4341  59.1865 0001356 106.1908 253.9476 15.20198420 20609"}}, "geometry": {"type": "Point", "coordinates": [58.794915950263125, 9.38556972514557]}}]}